XW-3 (CAS-9)            
1 50466U 21131B   24226.80896280  .00002827  00000+0  91499-3 0  9999
2 50466  98.5266 311.6119 0003298 326.8046  33.2935 14.39811282138299
GREENCUBE               
1 53106U 22080B   24220.17464831 -.00000003  00000+0  00000+0 0  9993
2 53106  70.1402 174.8068 0007673  95.8653 264.2881  6.42557506 48546
KAI-1 (RS26S)           
1 53378U 22096J   24226.39114901  .01595804  18807-2  17515-2 0  9998
2 53378  97.3915 149.7600 0008580 152.1833 207.9911 16.10131614113281
CAS-5A (FO-118)         
1 54684U 22167C   24226.87260966  .00061438  00000+0  18259-2 0  9993
2 54684  97.6104  13.2492 0009486 299.7086  60.3212 15.34498514 93139
STRATOSAT-TK 1 (RS52S)  
1 57167U 23091B   24226.87469933  .00033967  00000+0  18254-2 0  9995
2 57167  97.6072 279.8573 0013036 278.8259  81.1496 15.14740327 62285
UMKA 1 (RS40S)          
1 57172U 23091G   24226.86209720  .00012886  00000+0  82733-3 0  9997
2 57172  97.6077 278.3435 0014744 285.2973  74.6625 15.08505737 62186
CUBESX-HSE 3 (RS42S)    
1 57178U 23091N   24226.82585812  .00019785  00000+0  12078-2 0  9997
2 57178  97.6114 278.8938 0015379 277.8800  82.0683 15.10244794 62204
MONITOR-4 (RS57S)       
1 57182U 23091S   24226.83302889  .00018514  00000+0  11483-2 0  9992
2 57182  97.6099 278.6679 0015824 279.2746  80.6693 15.09676010 62192
MONITOR-2 (RS39S)       
1 57184U 23091U   24226.82400623  .00013914  00000+0  89396-3 0  9996
2 57184  97.6108 278.7085 0012507 273.5945  86.3853 15.08486045 62197
SVYATOBOR 1 (RS60S)     
1 57187U 23091X   24226.84921785  .00016698  00000+0  10191-2 0  9996
2 57187  97.6103 279.2966 0011925 269.0318  90.9545 15.10332690 62239
VIZARD-METEO (RS38S)    
1 57189U 23091Z   24226.81360136  .00020229  00000+0  11780-2 0  9992
2 57189  97.6103 279.7641 0010646 264.9929  95.0086 15.12003932 62262
NANOZOND 1 (RS49S)      
1 57190U 23091AA  24226.84119508  .00030360  00000+0  16150-2 0  9995
2 57190  97.6070 280.5103 0009194 267.4454  92.5726 15.15165684 62323
POLYTECH-UNIVERSE 3 (R*)
1 57191U 23091AB  24226.83043400  .00014032  00000+0  90077-3 0  9991
2 57191  97.6071 278.3702 0017905 291.9824  67.9501 15.08447511 62182
UTMN 2 (RS27S)          
1 57203U 23091AP  24226.82481722  .00019365  00000+0  11466-2 0  9995
2 57203  97.6102 279.5924 0011134 266.0063  93.9894 15.11406370 62250
ARCCUBE 1 (RS25S)       
1 57205U 23091AR  24226.83693488  .00032895  00000+0  16764-2 0  9991
2 57205  97.6040 280.7015 0009274 268.0713  91.9458 15.16661142 62343
KUZGTU 1 (RS47S)        
1 57217U 23091AV  24226.84045811  .00018989  00000+0  11652-2 0  9995
2 57217  97.6082 278.7417 0015380 279.2880  80.6609 15.10067088 62200
HADES-D (SO-121)        
1 58567U 23174CY  24227.20342256  .00171701  00000+0  44319-2 0  9998
2 58567  97.4479 303.4007 0007841  19.2691 340.8849 15.38440728 42675
OOV-CUBE (TUBSAT-30)    
1 60240U 24128F   24227.54508895  .00007059  00000+0  63184-3 0  9995
2 60240  61.9988  38.3335 0011330 297.7362  62.2576 14.96618157  5342
